start=new Date('2022-09-30T00:00:00.000Z').valueOf();
sats=[{"NORAD_CAT_ID":"45709","COUNTRY_CODE":"US","MEAN_ELEMENT_THEORY":"SGP4","SEMIMAJOR_AXIS":"6925.361","INCLINATION":"53.0547","ECCENTRICITY":"0.00012230","ARG_OF_PERICENTER":"73.8557","FILE":"3586894","CLASSIFICATION_TYPE":"U","EPOCH":"2022-09-29T07:08:19.432896","RA_OF_ASC_NODE":"281.2858","OBJECT_TYPE":"PAYLOAD","LAUNCH_DATE":"2020-06-04","REV_AT_EPOCH":"12959","MEAN_MOTION_DOT":"0.00000291","EPHEMERIS_TYPE":"0","TIME_SYSTEM":"UTC","REF_FRAME":"TEME","PERIAPSIS":"546.379","APOAPSIS":"548.073","CENTER_NAME":"EARTH","TLE_LINE2":"2 45709  53.0547 281.2858 0001223  73.8557 286.2566 15.06396055129599","TLE_LINE1":"1 45709U 20035BE  22272.29744714  .00000291  00000-0  38421-4 0  9992","GP_ID":"213802565","MEAN_ANOMALY":"286.2566","DECAY_DATE":null,"RCS_SIZE":"LARGE","SITE":"AFETR","PERIOD":"95.592","MEAN_MOTION":"15.06396055","ELEMENT_SET_NO":"999","OBJECT_NAME":"STARLINK-1421","MEAN_MOTION_DDOT":"0.0000000000000","BSTAR":"0.00003842100000","OBJECT_ID":"2020-035BE"},{"MEAN_ANOMALY":"295.0023","TLE_LINE1":"1 45710U 20035BF  22272.75819011 -.00001037  00000-0 -50756-4 0  9994","GP_ID":"213833731","TLE_LINE2":"2 45710  53.0543 279.2185 0001616  65.1134 295.0023 15.06390289129700","RCS_SIZE":"LARGE","DECAY_DATE":null,"BSTAR":"-0.00005075600000","MEAN_MOTION_DDOT":"0.0000000000000","OBJECT_NAME":"STARLINK-1423","ELEMENT_SET_NO":"999","MEAN_MOTION":"15.06390289","SITE":"AFETR","PERIOD":"95.593","OBJECT_ID":"2020-035BF","INCLINATION":"53.0543","SEMIMAJOR_AXIS":"6925.378","MEAN_ELEMENT_THEORY":"SGP4","COUNTRY_CODE":"US","NORAD_CAT_ID":"45710","FILE":"3587117","ARG_OF_PERICENTER":"65.1134","ECCENTRICITY":"0.00016160","LAUNCH_DATE":"2020-06-04","OBJECT_TYPE":"PAYLOAD","CLASSIFICATION_TYPE":"U","EPOCH":"2022-09-29T18:11:47.625504","RA_OF_ASC_NODE":"279.2185","CENTER_NAME":"EARTH","APOAPSIS":"548.362","PERIAPSIS":"546.124","REF_FRAME":"TEME","TIME_SYSTEM":"UTC","EPHEMERIS_TYPE":"0","MEAN_MOTION_DOT":"-0.00001037","REV_AT_EPOCH":"12970"},{"BSTAR":"0.00019476000000","PERIOD":"95.593","SITE":"AFETR","MEAN_MOTION":"15.06393044","ELEMENT_SET_NO":"999","MEAN_MOTION_DDOT":"0.0000000000000","OBJECT_NAME":"STARLINK-1433","OBJECT_ID":"2020-035BG","MEAN_ANOMALY":"286.5805","TLE_LINE2":"2 45711  53.0550 279.2849 0001514  73.5350 286.5805 15.06393044129699","GP_ID":"213832988","TLE_LINE1":"1 45711U 20035BG  22272.73976604  .00002620  00000-0  19476-3 0  9995","RCS_SIZE":"LARGE","DECAY_DATE":null,"OBJECT_TYPE":"PAYLOAD","LAUNCH_DATE":"2020-06-04","EPOCH":"2022-09-29T17:45:15.785856","CLASSIFICATION_TYPE":"U","RA_OF_ASC_NODE":"279.2849","REF_FRAME":"TEME","PERIAPSIS":"546.186","APOAPSIS":"548.283","CENTER_NAME":"EARTH","REV_AT_EPOCH":"12969","MEAN_MOTION_DOT":"0.00002620","EPHEMERIS_TYPE":"0","TIME_SYSTEM":"UTC","MEAN_ELEMENT_THEORY":"SGP4","SEMIMAJOR_AXIS":"6925.370","INCLINATION":"53.0550","NORAD_CAT_ID":"45711","COUNTRY_CODE":"US","FILE":"3587117","ECCENTRICITY":"0.00015140","ARG_OF_PERICENTER":"73.5350"},{"OBJECT_TYPE":"PAYLOAD","LAUNCH_DATE":"2020-06-04","EPOCH":"2022-09-29T08:06:42.725664","RA_OF_ASC_NODE":"281.0897","CLASSIFICATION_TYPE":"U","REF_FRAME":"TEME","PERIAPSIS":"546.403","APOAPSIS":"548.086","CENTER_NAME":"EARTH","REV_AT_EPOCH":"12964","MEAN_MOTION_DOT":"-0.00000318","EPHEMERIS_TYPE":"0","TIME_SYSTEM":"UTC","MEAN_ELEMENT_THEORY":"SGP4","INCLINATION":"53.0528","SEMIMAJOR_AXIS":"6925.380","NORAD_CAT_ID":"45712","COUNTRY_CODE":"US","FILE":"3586894","ECCENTRICITY":"0.00012150","ARG_OF_PERICENTER":"72.6040","BSTAR":"-0.00000244730000","PERIOD":"95.593","SITE":"AFETR","MEAN_MOTION":"15.06389896","ELEMENT_SET_NO":"999","OBJECT_NAME":"STARLINK-1434","MEAN_MOTION_DDOT":"0.0000000000000","OBJECT_ID":"2020-035BH","MEAN_ANOMALY":"287.5082","TLE_LINE2":"2 45712  53.0528 281.0897 0001215  72.6040 287.5082 15.06389896129646","TLE_LINE1":"1 45712U 20035BH  22272.33799451 -.00000318  00000-0 -24473-5 0  9994","GP_ID":"213801817","RCS_SIZE":"LARGE","DECAY_DATE":null},{"TLE_LINE2":"2 45713  53.0534 300.9858 0001724  64.8920 295.2247 15.06401009129355","TLE_LINE1":"1 45713U 20035BJ  22272.35826254  .00003163  00000-0  23116-3 0  9999","GP_ID":"213802066","MEAN_ANOMALY":"295.2247","DECAY_DATE":null,"RCS_SIZE":"LARGE","PERIOD":"95.592","SITE":"AFETR","MEAN_MOTION":"15.06401009","ELEMENT_SET_NO":"999","MEAN_MOTION_DDOT":"0.0000000000000","OBJECT_NAME":"STARLINK-1436","BSTAR":"0.00023116000000","OBJECT_ID":"2020-035BJ","NORAD_CAT_ID":"45713","COUNTRY_CODE":"US","MEAN_ELEMENT_THEORY":"SGP4","INCLINATION":"53.0534","SEMIMAJOR_AXIS":"6925.345","ECCENTRICITY":"0.00017240","ARG_OF_PERICENTER":"64.8920","FILE":"3586894","RA_OF_ASC_NODE":"300.9858","EPOCH":"2022-09-29T08:35:53.883456","CLASSIFICATION_TYPE":"U","OBJECT_TYPE":"PAYLOAD","LAUNCH_DATE":"2020-06-04","MEAN_MOTION_DOT":"0.00003163","REV_AT_EPOCH":"12935","EPHEMERIS_TYPE":"0","TIME_SYSTEM":"UTC","REF_FRAME":"TEME","PERIAPSIS":"546.017","APOAPSIS":"548.404","CENTER_NAME":"EARTH"},{"MEAN_ELEMENT_THEORY":"SGP4","INCLINATION":"53.0536","SEMIMAJOR_AXIS":"6925.342","NORAD_CAT_ID":"45714","COUNTRY_CODE":"US","FILE":"3587117","ECCENTRICITY":"0.00017180","ARG_OF_PERICENTER":"69.2068","OBJECT_TYPE":"PAYLOAD","LAUNCH_DATE":"2020-06-04","EPOCH":"2022-09-29T17:55:52.091616","RA_OF_ASC_NODE":"279.2551","CLASSIFICATION_TYPE":"U","REF_FRAME":"TEME","PERIAPSIS":"546.017","APOAPSIS":"548.396","CENTER_NAME":"EARTH","REV_AT_EPOCH":"12970","MEAN_MOTION_DOT":"0.00002663","EPHEMERIS_TYPE":"0","TIME_SYSTEM":"UTC","MEAN_ANOMALY":"290.9105","TLE_LINE2":"2 45714  53.0536 279.2551 0001718  69.2068 290.9105 15.06402269129704","GP_ID":"213834232","TLE_LINE1":"1 45714U 20035BK  22272.74713069  .00002663  00000-0  19757-3 0  9992","RCS_SIZE":"LARGE","DECAY_DATE":null,"BSTAR":"0.00019757000000","PERIOD":"95.592","SITE":"AFETR","MEAN_MOTION":"15.06402269","ELEMENT_SET_NO":"999","OBJECT_NAME":"STARLINK-1437","MEAN_MOTION_DDOT":"0.0000000000000","OBJECT_ID":"2020-035BK"},{"RCS_SIZE":"LARGE","DECAY_DATE":null,"MEAN_ANOMALY":"269.7281","TLE_LINE2":"2 45730  53.0516 120.9987 0001140  90.3839 269.7281 15.06392812126691","GP_ID":"213803069","TLE_LINE1":"1 45730U 20038A   22272.36010037 -.00000137  00000-0  96680-5 0  9993","OBJECT_ID":"2020-038A","BSTAR":"0.00000966800000","PERIOD":"95.593","SITE":"AFETR","MEAN_MOTION":"15.06392812","ELEMENT_SET_NO":"999","MEAN_MOTION_DDOT":"0.0000000000000","OBJECT_NAME":"STARLINK-1461","FILE":"3586894","ECCENTRICITY":"0.00011400","ARG_OF_PERICENTER":"90.3839","MEAN_ELEMENT_THEORY":"SGP4","INCLINATION":"53.0516","SEMIMAJOR_AXIS":"6925.371","NORAD_CAT_ID":"45730","COUNTRY_CODE":"US","REF_FRAME":"TEME","PERIAPSIS":"546.446","APOAPSIS":"548.025","CENTER_NAME":"EARTH","REV_AT_EPOCH":"12669","MEAN_MOTION_DOT":"-0.00000137","EPHEMERIS_TYPE":"0","TIME_SYSTEM":"UTC","OBJECT_TYPE":"PAYLOAD","LAUNCH_DATE":"2020-06-13","EPOCH":"2022-09-29T08:38:32.671968","CLASSIFICATION_TYPE":"U","RA_OF_ASC_NODE":"120.9987"},{"ECCENTRICITY":"0.00015030","ARG_OF_PERICENTER":"71.1637","FILE":"3587117","NORAD_CAT_ID":"45731","COUNTRY_CODE":"US","MEAN_ELEMENT_THEORY":"SGP4","SEMIMAJOR_AXIS":"6925.338","INCLINATION":"53.0543","EPHEMERIS_TYPE":"0","MEAN_MOTION_DOT":"-0.00001069","REV_AT_EPOCH":"12674","TIME_SYSTEM":"UTC","PERIAPSIS":"546.163","REF_FRAME":"TEME","CENTER_NAME":"EARTH","APOAPSIS":"548.244","CLASSIFICATION_TYPE":"U","EPOCH":"2022-09-29T18:33:01.627200","RA_OF_ASC_NODE":"119.1407","OBJECT_TYPE":"PAYLOAD","LAUNCH_DATE":"2020-06-13","DECAY_DATE":null,"RCS_SIZE":"LARGE","GP_ID":"213833239","TLE_LINE1":"1 45731U 20038B   22272.77293550 -.00001069  00000-0 -52854-4 0  9992","TLE_LINE2":"2 45731  53.0543 119.1407 0001503  71.1637 288.9515 15.06403288126744","MEAN_ANOMALY":"288.9515","OBJECT_ID":"2020-038B","MEAN_MOTION":"15.06403288","PERIOD":"95.592","SITE":"AFETR","MEAN_MOTION_DDOT":"0.0000000000000","OBJECT_NAME":"STARLINK-1465","ELEMENT_SET_NO":"999","BSTAR":"-0.00005285400000"},{"CENTER_NAME":"EARTH","APOAPSIS":"548.106","PERIAPSIS":"546.303","REF_FRAME":"TEME","TIME_SYSTEM":"UTC","EPHEMERIS_TYPE":"0","REV_AT_EPOCH":"12673","MEAN_MOTION_DOT":"0.00000776","LAUNCH_DATE":"2020-06-13","OBJECT_TYPE":"PAYLOAD","EPOCH":"2022-09-29T16:41:32.553888","CLASSIFICATION_TYPE":"U","RA_OF_ASC_NODE":"119.4876","FILE":"3587117","ARG_OF_PERICENTER":"90.0624","ECCENTRICITY":"0.00013020","SEMIMAJOR_AXIS":"6925.339","INCLINATION":"53.0545","MEAN_ELEMENT_THEORY":"SGP4","COUNTRY_CODE":"US","NORAD_CAT_ID":"45732","OBJECT_ID":"2020-038C","BSTAR":"0.00007095100000","MEAN_MOTION_DDOT":"0.0000000000000","OBJECT_NAME":"STARLINK-1466","ELEMENT_SET_NO":"999","MEAN_MOTION":"15.06403008","PERIOD":"95.592","SITE":"AFETR","RCS_SIZE":"LARGE","DECAY_DATE":null,"MEAN_ANOMALY":"270.0514","GP_ID":"213833489","TLE_LINE1":"1 45732U 20038C   22272.69551567  .00000776  00000-0  70951-4 0  9999","TLE_LINE2":"2 45732  53.0545 119.4876 0001302  90.0624 270.0514 15.06403008126733"},{"CENTER_NAME":"EARTH","APOAPSIS":"543.833","PERIAPSIS":"541.040","REF_FRAME":"TEME","TIME_SYSTEM":"UTC","EPHEMERIS_TYPE":"0","MEAN_MOTION_DOT":"0.00011532","REV_AT_EPOCH":"12676","LAUNCH_DATE":"2020-06-13","OBJECT_TYPE":"PAYLOAD","CLASSIFICATION_TYPE":"U","RA_OF_ASC_NODE":"118.3368","EPOCH":"2022-09-29T20:49:02.273088","FILE":"3587117","ARG_OF_PERICENTER":"98.7125","ECCENTRICITY":"0.00020180","SEMIMAJOR_AXIS":"6920.571","INCLINATION":"53.0524","MEAN_ELEMENT_THEORY":"SGP4","COUNTRY_CODE":"US","NORAD_CAT_ID":"45733","OBJECT_ID":"2020-038D","BSTAR":"0.00075930000000","OBJECT_NAME":"STARLINK-1467","MEAN_MOTION_DDOT":"0.0000000000000","ELEMENT_SET_NO":"999","MEAN_MOTION":"15.07960078","SITE":"AFETR","PERIOD":"95.493","RCS_SIZE":"LARGE","DECAY_DATE":null,"MEAN_ANOMALY":"261.4093","TLE_LINE1":"1 45733U 20038D   22272.86738742  .00011532  00000-0  75930-3 0  9994","GP_ID":"213834233","TLE_LINE2":"2 45733  53.0524 118.3368 0002018  98.7125 261.4093 15.07960078126766"}];
